{
  "links" : {
    "next" : "https://api.nasa.gov/neo/rest/v1/feed?start_date=2008-03-09&end_date=2008-03-09&detailed=true&api_key=t0TVs3DtDT2H8Oy2Zy8m2eVrNsAVKAexjcZXUckd",
    "prev" : "https://api.nasa.gov/neo/rest/v1/feed?start_date=2008-03-07&end_date=2008-03-07&detailed=true&api_key=t0TVs3DtDT2H8Oy2Zy8m2eVrNsAVKAexjcZXUckd",
    "self" : "https://api.nasa.gov/neo/rest/v1/feed?start_date=2008-03-08&end_date=2008-03-08&detailed=true&api_key=t0TVs3DtDT2H8Oy2Zy8m2eVrNsAVKAexjcZXUckd"
  },
  "element_count" : 5,
  "near_earth_objects" : {
    "2008-03-08" : [ {
      "links" : {
        "self" : "https://api.nasa.gov/neo/rest/v1/neo/3406335?api_key=t0TVs3DtDT2H8Oy2Zy8m2eVrNsAVKAexjcZXUckd"
      },
      "neo_reference_id" : "3406335",
      "name" : "(2008 EG85)",
      "nasa_jpl_url" : "http://ssd.jpl.nasa.gov/sbdb.cgi?sstr=3406335",
      "absolute_magnitude_h" : 25.0,
      "estimated_diameter" : {
        "kilometers" : {
          "estimated_diameter_min" : 0.02658,
          "estimated_diameter_max" : 0.0594346868
        },
        "meters" : {
          "estimated_diameter_min" : 26.58,
          "estimated_diameter_max" : 59.4346868419
        },
        "miles" : {
          "estimated_diameter_min" : 0.0165160412,
          "estimated_diameter_max" : 0.0369309908
        },
        "feet" : {
          "estimated_diameter_min" : 87.2047272,
          "estimated_diameter_max" : 194.9956979785
        }
      },
      "is_potentially_hazardous_asteroid" : false,
      "close_approach_data" : [ {
        "close_approach_date" : "2008-03-08",
        "epoch_date_close_approach" : 1204963200000,
        "relative_velocity" : {
          "kilometers_per_second" : "13.0633333536",
          "kilometers_per_hour" : "47028.00007292",
          "miles_per_hour" : "29221.370378643"
        },
        "miss_distance" : {
          "astronomical" : "0.0449400934",
          "lunar" : "17.4816951752",
          "kilometers" : "6722942",
          "miles" : "4177442.5"
        },
        "orbiting_body" : "Earth"
      } ],
      "orbital_data" : {
        "orbit_id" : "6",
        "orbit_determination_date" : "2017-04-06 09:03:58",
        "orbit_uncertainty" : "9",
        "minimum_orbit_intersection" : ".0421118",
        "jupiter_tisserand_invariant" : "4.226",
        "epoch_osculation" : "2454540.5",
        "eccentricity" : ".3953864357626786",
        "semi_major_axis" : "1.589026618429454",
        "inclination" : "20.48572665485709",
        "ascending_node_longitude" : "172.0614423434772",
        "orbital_period" : "731.6361998597732",
        "perihelion_distance" : ".9607470474366104",
        "perihelion_argument" : "316.438714541181",
        "aphelion_distance" : "2.217306189422298",
        "perihelion_time" : "2454499.784849408597",
        "mean_anomaly" : "20.03380124673212",
        "mean_motion" : ".4920478238624583",
        "equinox" : "J2000"
      }
    }, {
      "links" : {
        "self" : "https://api.nasa.gov/neo/rest/v1/neo/2437846?api_key=t0TVs3DtDT2H8Oy2Zy8m2eVrNsAVKAexjcZXUckd"
      },
      "neo_reference_id" : "2437846",
      "name" : "437846 (1999 RJ27)",
      "nasa_jpl_url" : "http://ssd.jpl.nasa.gov/sbdb.cgi?sstr=2437846",
      "absolute_magnitude_h" : 19.5,
      "estimated_diameter" : {
        "kilometers" : {
          "estimated_diameter_min" : 0.3346223745,
          "estimated_diameter_max" : 0.7482383761
        },
        "meters" : {
          "estimated_diameter_min" : 334.6223744549,
          "estimated_diameter_max" : 748.2383760735
        },
        "miles" : {
          "estimated_diameter_min" : 0.2079246394,
          "estimated_diameter_max" : 0.464933628
        },
        "feet" : {
          "estimated_diameter_min" : 1097.8424710066,
          "estimated_diameter_max" : 2454.8503937571
        }
      },
      "is_potentially_hazardous_asteroid" : false,
      "close_approach_data" : [ {
        "close_approach_date" : "2008-03-08",
        "epoch_date_close_approach" : 1204963200000,
        "relative_velocity" : {
          "kilometers_per_second" : "21.2276806688",
          "kilometers_per_hour" : "76419.650407855",
          "miles_per_hour" : "47484.1988881474"
        },
        "miss_distance" : {
          "astronomical" : "0.3046951188",
          "lunar" : "118.5264053345",
          "kilometers" : "45581744",
          "miles" : "28323182"
        },
        "orbiting_body" : "Earth"
      } ],
      "orbital_data" : {
        "orbit_id" : "28",
        "orbit_determination_date" : "2017-09-24 06:24:12",
        "orbit_uncertainty" : "0",
        "minimum_orbit_intersection" : ".109441",
        "jupiter_tisserand_invariant" : "4.417",
        "epoch_osculation" : "2458000.5",
        "eccentricity" : ".352410930053202",
        "semi_major_axis" : "1.478841388821454",
        "inclination" : "25.78119749058925",
        "ascending_node_longitude" : "170.308800948203",
        "orbital_period" : "656.8721091729773",
        "perihelion_distance" : ".9576815195857165",
        "perihelion_argument" : "64.345269633675",
        "aphelion_distance" : "2.000001258057191",
        "perihelion_time" : "2457861.875167549194",
        "mean_anomaly" : "75.97360123132948",
        "mean_motion" : ".5480518885986061",
        "equinox" : "J2000"
      }
    }, {
      "links" : {
        "self" : "https://api.nasa.gov/neo/rest/v1/neo/3402610?api_key=t0TVs3DtDT2H8Oy2Zy8m2eVrNsAVKAexjcZXUckd"
      },
      "neo_reference_id" : "3402610",
      "name" : "(2008 CH116)",
      "nasa_jpl_url" : "http://ssd.jpl.nasa.gov/sbdb.cgi?sstr=3402610",
      "absolute_magnitude_h" : 19.2,
      "estimated_diameter" : {
        "kilometers" : {
          "estimated_diameter_min" : 0.3841978911,
          "estimated_diameter_max" : 0.8590926012
        },
        "meters" : {
          "estimated_diameter_min" : 384.1978910643,
          "estimated_diameter_max" : 859.0926012318
        },
        "miles" : {
          "estimated_diameter_min" : 0.2387294278,
          "estimated_diameter_max" : 0.5338152287
        },
        "feet" : {
          "estimated_diameter_min" : 1260.4918089193,
          "estimated_diameter_max" : 2818.5453698252
        }
      },
      "is_potentially_hazardous_asteroid" : false,
      "close_approach_data" : [ {
        "close_approach_date" : "2008-03-08",
        "epoch_date_close_approach" : 1204963200000,
        "relative_velocity" : {
          "kilometers_per_second" : "27.1484238948",
          "kilometers_per_hour" : "97734.3260214326",
          "miles_per_hour" : "60728.309410373"
        },
        "miss_distance" : {
          "astronomical" : "0.4926378353",
          "lunar" : "191.6361236572",
          "kilometers" : "73697576",
          "miles" : "45793548"
        },
        "orbiting_body" : "Earth"
      } ],
      "orbital_data" : {
        "orbit_id" : "21",
        "orbit_determination_date" : "2017-04-06 09:04:23",
        "orbit_uncertainty" : "1",
        "minimum_orbit_intersection" : ".223726",
        "jupiter_tisserand_invariant" : "8.392",
        "epoch_osculation" : "2458000.5",
        "eccentricity" : ".587468105493067",
        "semi_major_axis" : ".6628088259515706",
        "inclination" : "20.37051667707212",
        "ascending_node_longitude" : "85.93941965681303",
        "orbital_period" : "197.0973799367621",
        "perihelion_distance" : ".2734297806657174",
        "perihelion_argument" : "248.1510091806775",
        "aphelion_distance" : "1.052187871237424",
        "perihelion_time" : "2457930.846437248613",
        "mean_anomaly" : "127.2228103617845",
        "mean_motion" : "1.826508298159542",
        "equinox" : "J2000"
      }
    } ]
  }
}